[{"OBJECT_NAME":"STARLINK-32913","OBJECT_ID":"2025-037X","EPOCH":"2025-11-22T06:32:53.916000","MEAN_MOTION":14.98263321,"ECCENTRICITY":0.0002019,"INCLINATION":70.0033,"RA_OF_ASC_NODE":265.2177,"ARG_OF_PERICENTER":254.0947,"MEAN_ANOMALY":105.9989,"EPHEMERIS_TYPE":0,"CLASSIFICATION_TYPE":"U","NORAD_CAT_ID":63098,"ELEMENT_SET_NO":999,"REV_AT_EPOCH":4252,"BSTAR":-0.0013948,"MEAN_MOTION_DOT":-0.00016667,"MEAN_MOTION_DDOT":0},{"OBJECT_NAME":"STARLINK-11629 [DTC]","OBJECT_ID":"2025-039A","EPOCH":"2025-11-21T22:50:25.559808","MEAN_MOTION":15.71073049,"ECCENTRICITY":0.0002777,"INCLINATION":43.0024,"RA_OF_ASC_NODE":166.0211,"ARG_OF_PERICENTER":268.0635,"MEAN_ANOMALY":91.9915,"EPHEMERIS_TYPE":0,"CLASSIFICATION_TYPE":"U","NORAD_CAT_ID":63104,"ELEMENT_SET_NO":999,"REV_AT_EPOCH":4267,"BSTAR":0.0019803,"MEAN_MOTION_DOT":0.00264486,"MEAN_MOTION_DDOT":0},{"OBJECT_NAME":"STARLINK-11624 [DTC]","OBJECT_ID":"2025-039B","EPOCH":"2025-11-21T13:11:58.280640","MEAN_MOTION":15.70996143,"ECCENTRICITY":0.0001899,"INCLINATION":42.9982,"RA_OF_ASC_NODE":169.0578,"ARG_OF_PERICENTER":236.222,"MEAN_ANOMALY":123.8467,"EPHEMERIS_TYPE":0,"CLASSIFICATION_TYPE":"U","NORAD_CAT_ID":63105,"ELEMENT_SET_NO":999,"REV_AT_EPOCH":4260,"BSTAR":0.0019871,"MEAN_MOTION_DOT":0.00264539,"MEAN_MOTION_DDOT":0},{"OBJECT_NAME":"STARLINK-11584 [DTC]","OBJECT_ID":"2025-039C","EPOCH":"2025-11-21T22:20:01.884768","MEAN_MOTION":15.70888462,"ECCENTRICITY":0.0001993,"INCLINATION":43.0015,"RA_OF_ASC_NODE":166.7511,"ARG_OF_PERICENTER":277.8317,"MEAN_ANOMALY":82.2324,"EPHEMERIS_TYPE":0,"CLASSIFICATION_TYPE":"U","NORAD_CAT_ID":63106,"ELEMENT_SET_NO":999,"REV_AT_EPOCH":4266,"BSTAR":0.0015667,"MEAN_MOTION_DOT":0.00206063,"MEAN_MOTION_DDOT":0},{"OBJECT_NAME":"STARLINK-11627 [DTC]","OBJECT_ID":"2025-039D","EPOCH":"2025-11-21T23:05:42.561888","MEAN_MOTION":15.70848876,"ECCENTRICITY":0.0002103,"INCLINATION":42.9989,"RA_OF_ASC_NODE":166.1107,"ARG_OF_PERICENTER":256.6566,"MEAN_ANOMALY":103.4067,"EPHEMERIS_TYPE":0,"CLASSIFICATION_TYPE":"U","NORAD_CAT_ID":63107,"ELEMENT_SET_NO":999,"REV_AT_EPOCH":4267,"BSTAR":0.0010176,"MEAN_MOTION_DOT":0.0013228,"MEAN_MOTION_DDOT":0},{"OBJECT_NAME":"STARLINK-11632 [DTC]","OBJECT_ID":"2025-039E","EPOCH":"2025-11-21T23:28:39.332064","MEAN_MOTION":15.70771268,"ECCENTRICITY":0.0001425,"INCLINATION":43.0005,"RA_OF_ASC_NODE":166.2379,"ARG_OF_PERICENTER":272.5316,"MEAN_ANOMALY":87.5389,"EPHEMERIS_TYPE":0,"CLASSIFICATION_TYPE":"U","NORAD_CAT_ID":63108,"ELEMENT_SET_NO":999,"REV_AT_EPOCH":4267,"BSTAR":0.0018156,"MEAN_MOTION_DOT":0.00238644,"MEAN_MOTION_DDOT":0},{"OBJECT_NAME":"STARLINK-11625 [DTC]","OBJECT_ID":"2025-039F","EPOCH":"2025-11-21T22:04:43.658400","MEAN_MOTION":15.71026562,"ECCENTRICITY":0.000432,"INCLINATION":42.9998,"RA_OF_ASC_NODE":166.6671,"ARG_OF_PERICENTER":252.7333,"MEAN_ANOMALY":107.3062,"EPHEMERIS_TYPE":0,"CLASSIFICATION_TYPE":"U","NORAD_CAT_ID":63109,"ELEMENT_SET_NO":999,"REV_AT_EPOCH":4266,"BSTAR":0.0015564,"MEAN_MOTION_DOT":0.00205947,"MEAN_MOTION_DDOT":0},{"OBJECT_NAME":"STARLINK-11601 [DTC]","OBJECT_ID":"2025-039G","EPOCH":"2025-11-21T23:13:22.317024","MEAN_MOTION":15.71076815,"ECCENTRICITY":0.0001494,"INCLINATION":42.9973,"RA_OF_ASC_NODE":166.1515,"ARG_OF_PERICENTER":299.552,"MEAN_ANOMALY":60.5199,"EPHEMERIS_TYPE":0,"CLASSIFICATION_TYPE":"U","NORAD_CAT_ID":63110,"ELEMENT_SET_NO":999,"REV_AT_EPOCH":4267,"BSTAR":0.0018459,"MEAN_MOTION_DOT":0.00245991,"MEAN_MOTION_DDOT":0},{"OBJECT_NAME":"STARLINK-11630 [DTC]","OBJECT_ID":"2025-039H","EPOCH":"2025-11-21T22:12:22.800096","MEAN_MOTION":15.70863903,"ECCENTRICITY":0.0002441,"INCLINATION":42.9992,"RA_OF_ASC_NODE":166.7092,"ARG_OF_PERICENTER":288.1605,"MEAN_ANOMALY":71.8997,"EPHEMERIS_TYPE":0,"CLASSIFICATION_TYPE":"U","NORAD_CAT_ID":63111,"ELEMENT_SET_NO":999,"REV_AT_EPOCH":4266,"BSTAR":0.0010501,"MEAN_MOTION_DOT":0.0013668,"MEAN_MOTION_DDOT":0},{"OBJECT_NAME":"STARLINK-11590 [DTC]","OBJECT_ID":"2025-039J","EPOCH":"2025-11-21T11:46:45.071616","MEAN_MOTION":15.71280347,"ECCENTRICITY":0.0002834,"INCLINATION":42.9989,"RA_OF_ASC_NODE":169.4736,"ARG_OF_PERICENTER":266.3761,"MEAN_ANOMALY":93.6782,"EPHEMERIS_TYPE":0,"CLASSIFICATION_TYPE":"U","NORAD_CAT_ID":63112,"ELEMENT_SET_NO":999,"REV_AT_EPOCH":4259,"BSTAR":0.0022584,"MEAN_MOTION_DOT":0.00305875,"MEAN_MOTION_DDOT":0},{"OBJECT_NAME":"STARLINK-11598 [DTC]","OBJECT_ID":"2025-039K","EPOCH":"2025-11-22T00:52:33.564576","MEAN_MOTION":15.71095923,"ECCENTRICITY":0.0004509,"INCLINATION":42.9995,"RA_OF_ASC_NODE":165.8095,"ARG_OF_PERICENTER":238.7064,"MEAN_ANOMALY":121.3363,"EPHEMERIS_TYPE":0,"CLASSIFICATION_TYPE":"U","NORAD_CAT_ID":63113,"ELEMENT_SET_NO":999,"REV_AT_EPOCH":4268,"BSTAR":0.0018499,"MEAN_MOTION_DOT":0.00246807,"MEAN_MOTION_DDOT":0},{"OBJECT_NAME":"STARLINK-11600 [DTC]","OBJECT_ID":"2025-039L","EPOCH":"2025-11-21T22:58:04.205568","MEAN_MOTION":15.70839842,"ECCENTRICITY":0.0002165,"INCLINATION":43,"RA_OF_ASC_NODE":166.0647,"ARG_OF_PERICENTER":280.7056,"MEAN_ANOMALY":79.3568,"EPHEMERIS_TYPE":0,"CLASSIFICATION_TYPE":"U","NORAD_CAT_ID":63114,"ELEMENT_SET_NO":999,"REV_AT_EPOCH":4267,"BSTAR":0.0016713,"MEAN_MOTION_DOT":0.00219769,"MEAN_MOTION_DDOT":0},{"OBJECT_NAME":"STARLINK-11597 [DTC]","OBJECT_ID":"2025-039M","EPOCH":"2025-11-22T12:00:02.998944","MEAN_MOTION":15.70822549,"ECCENTRICITY":0.0001955,"INCLINATION":43,"RA_OF_ASC_NODE":162.6415,"ARG_OF_PERICENTER":259.4702,"MEAN_ANOMALY":355.3486,"EPHEMERIS_TYPE":0,"CLASSIFICATION_TYPE":"U","NORAD_CAT_ID":63115,"ELEMENT_SET_NO":999,"REV_AT_EPOCH":602,"BSTAR":0.00013629,"MEAN_MOTION_DOT":0.00017062,"MEAN_MOTION_DDOT":0},{"OBJECT_NAME":"STARLINK-11591 [DTC]","OBJECT_ID":"2025-039N","EPOCH":"2025-11-21T00:00:02.000160","MEAN_MOTION":15.70814398,"ECCENTRICITY":0.0001701,"INCLINATION":43,"RA_OF_ASC_NODE":171.6108,"ARG_OF_PERICENTER":271.7903,"MEAN_ANOMALY":160.2177,"EPHEMERIS_TYPE":0,"CLASSIFICATION_TYPE":"U","NORAD_CAT_ID":63116,"ELEMENT_SET_NO":999,"REV_AT_EPOCH":600,"BSTAR":0.00018592,"MEAN_MOTION_DOT":0.00023449,"MEAN_MOTION_DDOT":0},{"OBJECT_NAME":"STARLINK-32955","OBJECT_ID":"2025-039P","EPOCH":"2025-11-21T21:24:46.327104","MEAN_MOTION":15.27592014,"ECCENTRICITY":0.0001647,"INCLINATION":43.0031,"RA_OF_ASC_NODE":261.3054,"ARG_OF_PERICENTER":257.8473,"MEAN_ANOMALY":102.2194,"EPHEMERIS_TYPE":0,"CLASSIFICATION_TYPE":"U","NORAD_CAT_ID":63117,"ELEMENT_SET_NO":999,"REV_AT_EPOCH":4158,"BSTAR":0.0013151,"MEAN_MOTION_DOT":0.00036117,"MEAN_MOTION_DDOT":0},{"OBJECT_NAME":"STARLINK-32945","OBJECT_ID":"2025-039Q","EPOCH":"2025-11-22T05:26:36.384000","MEAN_MOTION":15.27612438,"ECCENTRICITY":0.0005005,"INCLINATION":43.0014,"RA_OF_ASC_NODE":259.5104,"ARG_OF_PERICENTER":238.0397,"MEAN_ANOMALY":121.9968,"EPHEMERIS_TYPE":0,"CLASSIFICATION_TYPE":"U","NORAD_CAT_ID":63118,"ELEMENT_SET_NO":999,"REV_AT_EPOCH":4163,"BSTAR":0.0011585,"MEAN_MOTION_DOT":0.00031795,"MEAN_MOTION_DDOT":0}]
