STARLINK-32913          
1 63098U 25037X   25326.27284625 -.00016667  00000+0 -13948-2 0  9991
2 63098  70.0033 265.2177 0002019 254.0947 105.9989 14.98263321 42527
STARLINK-11629 [DTC]    
1 63104U 25039A   25325.95168472  .00264486  00000+0  19803-2 0  9994
2 63104  43.0024 166.0211 0002777 268.0635  91.9915 15.71073049 42679
STARLINK-11624 [DTC]    
1 63105U 25039B   25325.54998010  .00264539  00000+0  19871-2 0  9993
2 63105  42.9982 169.0578 0001899 236.2220 123.8467 15.70996143 42609
STARLINK-11584 [DTC]    
1 63106U 25039C   25325.93057737  .00206063  00000+0  15667-2 0  9996
2 63106  43.0015 166.7511 0001993 277.8317  82.2324 15.70888462 42663
STARLINK-11627 [DTC]    
1 63107U 25039D   25325.96229817  .00132280  00000+0  10176-2 0  9999
2 63107  42.9989 166.1107 0002103 256.6566 103.4067 15.70848876 42678
STARLINK-11632 [DTC]    
1 63108U 25039E   25325.97823301  .00238644  00000+0  18156-2 0  9996
2 63108  43.0005 166.2379 0001425 272.5316  87.5389 15.70771268 42677
STARLINK-11625 [DTC]    
1 63109U 25039F   25325.91994975  .00205947  00000+0  15564-2 0  9997
2 63109  42.9998 166.6671 0004320 252.7333 107.3062 15.71026562 42661
STARLINK-11601 [DTC]    
1 63110U 25039G   25325.96761941  .00245991  00000+0  18459-2 0  9998
2 63110  42.9973 166.1515 0001494 299.5520  60.5199 15.71076815 42672
STARLINK-11630 [DTC]    
1 63111U 25039H   25325.92526389  .00136680  00000+0  10501-2 0  9994
2 63111  42.9992 166.7092 0002441 288.1605  71.8997 15.70863903 42662
STARLINK-11590 [DTC]    
1 63112U 25039J   25325.49079944  .00305875  00000+0  22584-2 0  9995
2 63112  42.9989 169.4736 0002834 266.3761  93.6782 15.71280347 42593
STARLINK-11598 [DTC]    
1 63113U 25039K   25326.03649959  .00246807  00000+0  18499-2 0  9995
2 63113  42.9995 165.8095 0004509 238.7064 121.3363 15.71095923 42687
STARLINK-11600 [DTC]    
1 63114U 25039L   25325.95699312  .00219769  00000+0  16713-2 0  9998
2 63114  43.0000 166.0647 0002165 280.7056  79.3568 15.70839842 42670
STARLINK-11597 [DTC]    
1 63115U 25039M   25326.50003471  .00017062  00000+0  13629-3 0  9992
2 63115  43.0000 162.6415 0001955 259.4702 355.3486 15.70822549  6024
STARLINK-11591 [DTC]    
1 63116U 25039N   25325.00002315  .00023449  00000+0  18592-3 0  9993
2 63116  43.0000 171.6108 0001701 271.7903 160.2177 15.70814398  6004
STARLINK-32955          
1 63117U 25039P   25325.89220286  .00036117  00000+0  13151-2 0  9991
2 63117  43.0031 261.3054 0001647 257.8473 102.2194 15.27592014 41589
STARLINK-32945          
1 63118U 25039Q   25326.22681000  .00031795  00000+0  11585-2 0  9991
2 63118  43.0014 259.5104 0005005 238.0397 121.9968 15.27612438 41630
